[
    {
        "Altitude(m)": 604234.624249752,
        "Argument of Periapsis(deg)": 0.0,
        "Eccentricity": 0.0,
        "Inclination(deg)": 60.0,
        "Latitude(deg)": 14.117321418181742,
        "Longitude(deg)": 71.72731841400584,
        "Mean Anomaly(deg)": 163.6364,
        "RAAN(deg)": 0.0,
        "Satellite Name": "Test1 10",
        "Satellite Number": 10,
        "Semi-Major Axis(m)": 6980739.136638005,
        "Time(s)": 0
    },
    {
        "Altitude(m)": 604223.4523238628,
        "Argument of Periapsis(deg)": 0.00010418945913296404,
        "Eccentricity": 0.0,
        "Inclination(deg)": 60.0,
        "Latitude(deg)": 13.582457969959973,
        "Longitude(deg)": 72.01422804381586,
        "Mean Anomaly(deg)": 164.25650614546183,
        "RAAN(deg)": -0.0004200491397426661,
        "Satellite Name": "Test1 10",
        "Satellite Number": 10,
        "Semi-Major Axis(m)": 6980739.136638005,
        "Time(s)": 10
    }
]